{
    "links": {
        "self": "http://www.neowsapp.com/rest/v1/neo/3599932?api_key=iIulBulltgU6a56xZRHN4H3l9WmuAYTsLGpBGhQ2"
    },
    "id": "3599932",
    "neo_reference_id": "3599932",
    "name": "(2012 DW32)",
    "designation": "2012 DW32",
    "nasa_jpl_url": "http://ssd.jpl.nasa.gov/sbdb.cgi?sstr=3599932",
    "absolute_magnitude_h": 25.3,
    "estimated_diameter": {
        "kilometers": {
            "estimated_diameter_min": 0.0231502122,
            "estimated_diameter_max": 0.0517654482
        },
        "meters": {
            "estimated_diameter_min": 23.150212221,
            "estimated_diameter_max": 51.7654482198
        },
        "miles": {
            "estimated_diameter_min": 0.0143848705,
            "estimated_diameter_max": 0.0321655483
        },
        "feet": {
            "estimated_diameter_min": 75.9521422633,
            "estimated_diameter_max": 169.8341531374
        }
    },
    "is_potentially_hazardous_asteroid": false,
    "close_approach_data": [
        {
            "close_approach_date": "2012-02-29",
            "close_approach_date_full": "2012-Feb-29 23:38",
            "epoch_date_close_approach": 1330558680000,
            "relative_velocity": {
                "kilometers_per_second": "6.9492138529",
                "kilometers_per_hour": "25017.1698703815",
                "miles_per_hour": "15544.6964675156"
            },
            "miss_distance": {
                "astronomical": "0.0356533633",
                "lunar": "13.8691583237",
                "kilometers": "5333667.208016171",
                "miles": "3314187.1221623198"
            },
            "orbiting_body": "Earth"
        },
        {
            "close_approach_date": "2017-04-21",
            "close_approach_date_full": "2017-Apr-21 12:30",
            "epoch_date_close_approach": 1492777800000,
            "relative_velocity": {
                "kilometers_per_second": "14.9845770592",
                "kilometers_per_hour": "53944.4774129879",
                "miles_per_hour": "33519.0004236424"
            },
            "miss_distance": {
                "astronomical": "0.0921750371",
                "lunar": "35.8560894319",
                "kilometers": "13789189.217330977",
                "miles": "8568204.8667104026"
            },
            "orbiting_body": "Mars"
        },
        {
            "close_approach_date": "2066-05-15",
            "close_approach_date_full": "2066-May-15 08:30",
            "epoch_date_close_approach": 3041137800000,
            "relative_velocity": {
                "kilometers_per_second": "19.8555320976",
                "kilometers_per_hour": "71479.9155513992",
                "miles_per_hour": "44414.8397491458"
            },
            "miss_distance": {
                "astronomical": "0.4438786788",
                "lunar": "172.6688060532",
                "kilometers": "66403304.886894156",
                "miles": "41261100.3540691128"
            },
            "orbiting_body": "Earth"
        },
        {
            "close_approach_date": "2093-08-13",
            "close_approach_date_full": "2093-Aug-13 03:34",
            "epoch_date_close_approach": 3900972840000,
            "relative_velocity": {
                "kilometers_per_second": "14.2525355331",
                "kilometers_per_hour": "51309.1279190999",
                "miles_per_hour": "31881.496733954"
            },
            "miss_distance": {
                "astronomical": "0.057292032",
                "lunar": "22.286600448",
                "kilometers": "8570765.95517184",
                "miles": "5325627.011937792"
            },
            "orbiting_body": "Mars"
        }
    ],
    "orbital_data": {
        "orbit_id": "7",
        "orbit_determination_date": "2017-04-06 08:50:46",
        "first_observation_date": "2012-02-25",
        "last_observation_date": "2012-03-04",
        "data_arc_in_days": 8,
        "observations_used": 60,
        "orbit_uncertainty": "7",
        "minimum_orbit_intersection": ".0153054",
        "jupiter_tisserand_invariant": "3.751",
        "epoch_osculation": "2459000.5",
        "eccentricity": ".4796749175104787",
        "semi_major_axis": "1.941272081088993",
        "inclination": "3.178618770716467",
        "ascending_node_longitude": "354.6129675568527",
        "orbital_period": "987.9342452852828",
        "perihelion_distance": "1.010092555727235",
        "perihelion_argument": "179.1442722095805",
        "aphelion_distance": "2.872451606450752",
        "perihelion_time": "2458960.852268783824",
        "mean_anomaly": "14.44750326850104",
        "mean_motion": ".3643967214599833",
        "equinox": "J2000",
        "orbit_class": {
            "orbit_class_type": "APO",
            "orbit_class_description": "Near-Earth asteroid orbits which cross the Earth’s orbit similar to that of 1862 Apollo",
            "orbit_class_range": "a (semi-major axis) > 1.0 AU; q (perihelion) < 1.017 AU"
        }
    },
    "is_sentry_object": false
}